{"type": "FeatureCollection", "features": [ {"type": "Feature", "properties": {"norad_id": 66426, "name": "STARLINK-35589", "group": "last-30-days", "lat": -39.03518009407932, "lon": 17.84058185060894, "alt_km": 446.2580663965182, "timestamp": "2025-12-07T11:27:48.739400+00:00", "meta": {"OBJECT_NAME": "STARLINK-35589", "OBJECT_ID": "2025-259E", "EPOCH": "2025-12-07T00:00:02.000160", "MEAN_MOTION": 15.40670238, "ECCENTRICITY": 0.00015079, "INCLINATION": 43.0008, "RA_OF_ASC_NODE": 81.0603, "ARG_OF_PERICENTER": 280.9929, "MEAN_ANOMALY": 239.284, "EPHEMERIS_TYPE": 0, "CLASSIFICATION_TYPE": "U", "NORAD_CAT_ID": 66426, "ELEMENT_SET_NO": 999, "REV_AT_EPOCH": 535, "BSTAR": 0.00054813621, "MEAN_MOTION_DOT": 0.00022639, "MEAN_MOTION_DDOT": 0}, "tle": {"line1": "1 66426U 25259E   25341.00002315  .00022639  00000+0  54814-3 0  9999", "line2": "2 66426  43.0008  81.0603 0001507 280.9929 239.2840 15.40670238  5358"}}, "geometry": {"type": "Point", "coordinates": [17.84058185060894, -39.03518009407932]}}, {"type": "Feature", "properties": {"norad_id": 66427, "name": "STARLINK-35611", "group": "last-30-days", "lat": -34.01081227349745, "lon": 31.88208324345662, "alt_km": 445.43623957214004, "timestamp": "2025-12-07T11:27:48.739410+00:00", "meta": {"OBJECT_NAME": "STARLINK-35611", "OBJECT_ID": "2025-259F", "EPOCH": "2025-12-07T00:00:02.000160", "MEAN_MOTION": 15.40683852, "ECCENTRICITY": 0.00021469, "INCLINATION": 43.0009, "RA_OF_ASC_NODE": 81.0297, "ARG_OF_PERICENTER": 304.2938, "MEAN_ANOMALY": 228.3124, "EPHEMERIS_TYPE": 0, "CLASSIFICATION_TYPE": "U", "NORAD_CAT_ID": 66427, "ELEMENT_SET_NO": 999, "REV_AT_EPOCH": 535, "BSTAR": 0.0012556228, "MEAN_MOTION_DOT": 0.00052482, "MEAN_MOTION_DDOT": 0}, "tle": {"line1": "1 66427U 25259F   25341.00002315  .00052482  00000+0  12556-2 0  9995", "line2": "2 66427  43.0009  81.0297 0002146 304.2938 228.3124 15.40683852  5359"}}, "geometry": {"type": "Point", "coordinates": [31.88208324345662, -34.01081227349745]}}, {"type": "Feature", "properties": {"norad_id": 66428, "name": "STARLINK-35610", "group": "last-30-days", "lat": -27.508456158409093, "lon": 44.272633616924516, "alt_km": 445.69303297677925, "timestamp": "2025-12-07T11:27:48.739421+00:00", "meta": {"OBJECT_NAME": "STARLINK-35610", "OBJECT_ID": "2025-259G", "EPOCH": "2025-12-07T00:00:02.000160", "MEAN_MOTION": 15.40656273, "ECCENTRICITY": 0.00019589, "INCLINATION": 43.0012, "RA_OF_ASC_NODE": 80.9993, "ARG_OF_PERICENTER": 266.6834, "MEAN_ANOMALY": 278.4577, "EPHEMERIS_TYPE": 0, "CLASSIFICATION_TYPE": "U", "NORAD_CAT_ID": 66428, "ELEMENT_SET_NO": 999, "REV_AT_EPOCH": 535, "BSTAR": 0.0010442208, "MEAN_MOTION_DOT": 0.00043502, "MEAN_MOTION_DDOT": 0}, "tle": {"line1": "1 66428U 25259G   25341.00002315  .00043502  00000+0  10442-2 0  9991", "line2": "2 66428  43.0012  80.9993 0001958 266.6834 278.4577 15.40656273  5356"}}, "geometry": {"type": "Point", "coordinates": [44.272633616924516, -27.508456158409093]}}, {"type": "Feature", "properties": {"norad_id": 66429, "name": "STARLINK-35533", "group": "last-30-days", "lat": -20.049855408337987, "lon": 55.158552570932294, "alt_km": 445.5419844873659, "timestamp": "2025-12-07T11:27:48.739432+00:00", "meta": {"OBJECT_NAME": "STARLINK-35533", "OBJECT_ID": "2025-259H", "EPOCH": "2025-12-07T00:00:02.000160", "MEAN_MOTION": 15.40819305, "ECCENTRICITY": 0.00016575, "INCLINATION": 43.0013, "RA_OF_ASC_NODE": 80.9673, "ARG_OF_PERICENTER": 280.0087, "MEAN_ANOMALY": 277.5606, "EPHEMERIS_TYPE": 0, "CLASSIFICATION_TYPE": "U", "NORAD_CAT_ID": 66429, "ELEMENT_SET_NO": 999, "REV_AT_EPOCH": 535, "BSTAR": -0.0059154779, "MEAN_MOTION_DOT": -0.00240737, "MEAN_MOTION_DDOT": 0}, "tle": {"line1": "1 66429U 25259H   25341.00002315 -.00240737  00000+0 -59155-2 0  9997", "line2": "2 66429  43.0013  80.9673 0001657 280.0087 277.5606 15.40819305  5359"}}, "geometry": {"type": "Point", "coordinates": [55.158552570932294, -20.049855408337987]}}, {"type": "Feature", "properties": {"norad_id": 66430, "name": "STARLINK-35470", "group": "last-30-days", "lat": -12.009258126485868, "lon": 64.99068738655468, "alt_km": 446.01177727282356, "timestamp": "2025-12-07T11:27:48.739442+00:00", "meta": {"OBJECT_NAME": "STARLINK-35470", "OBJECT_ID": "2025-259J", "EPOCH": "2025-12-07T00:00:02.000160", "MEAN_MOTION": 15.42668767, "ECCENTRICITY": 0.00011636, "INCLINATION": 43.001, "RA_OF_ASC_NODE": 80.942, "ARG_OF_PERICENTER": 278.8341, "MEAN_ANOMALY": 289.9103, "EPHEMERIS_TYPE": 0, "CLASSIFICATION_TYPE": "U", "NORAD_CAT_ID": 66430, "ELEMENT_SET_NO": 999, "REV_AT_EPOCH": 535, "BSTAR": -0.060071655, "MEAN_MOTION_DOT": -0.02384104, "MEAN_MOTION_DDOT": 0}, "tle": {"line1": "1 66430U 25259J   25341.00002315 -.02384104  00000+0 -60072-1 0  9997", "line2": "2 66430  43.0010  80.9420 0001163 278.8341 289.9103 15.42668767  5353"}}, "geometry": {"type": "Point", "coordinates": [64.99068738655468, -12.009258126485868]}}, {"type": "Feature", "properties": {"norad_id": 66431, "name": "STARLINK-35439", "group": "last-30-days", "lat": -3.8194612117422717, "lon": 74.04629474860764, "alt_km": 441.2040230145667, "timestamp": "2025-12-07T11:27:48.739452+00:00", "meta": {"OBJECT_NAME": "STARLINK-35439", "OBJECT_ID": "2025-259K", "EPOCH": "2025-12-07T00:00:02.000160", "MEAN_MOTION": 15.43835574, "ECCENTRICITY": 0.00010012, "INCLINATION": 43.0014, "RA_OF_ASC_NODE": 80.9159, "ARG_OF_PERICENTER": 263.1584, "MEAN_ANOMALY": 315.4532, "EPHEMERIS_TYPE": 0, "CLASSIFICATION_TYPE": "U", "NORAD_CAT_ID": 66431, "ELEMENT_SET_NO": 999, "REV_AT_EPOCH": 535, "BSTAR": -0.049852555, "MEAN_MOTION_DOT": -0.02055157, "MEAN_MOTION_DDOT": 0}, "tle": {"line1": "1 66431U 25259K   25341.00002315 -.02055157  00000+0 -49853-1 0  9995", "line2": "2 66431  43.0014  80.9159 0001001 263.1584 315.4532 15.43835574  5358"}}, "geometry": {"type": "Point", "coordinates": [74.04629474860764, -3.8194612117422717]}}, {"type": "Feature", "properties": {"norad_id": 66432, "name": "STARLINK-35446", "group": "last-30-days", "lat": 3.463202967851558, "lon": 81.85255876113254, "alt_km": 436.33114274738, "timestamp": "2025-12-07T11:27:48.739462+00:00", "meta": {"OBJECT_NAME": "STARLINK-35446", "OBJECT_ID": "2025-259L", "EPOCH": "2025-12-07T00:00:02.000160", "MEAN_MOTION": 15.45160344, "ECCENTRICITY": 0.0001178, "INCLINATION": 43.0011, "RA_OF_ASC_NODE": 80.896, "ARG_OF_PERICENTER": 276.0594, "MEAN_ANOMALY": 310.976, "EPHEMERIS_TYPE": 0, "CLASSIFICATION_TYPE": "U", "NORAD_CAT_ID": 66432, "ELEMENT_SET_NO": 999, "REV_AT_EPOCH": 535, "BSTAR": -0.048203807, "MEAN_MOTION_DOT": -0.02077191, "MEAN_MOTION_DDOT": 0}, "tle": {"line1": "1 66432U 25259L   25341.00002315 -.02077191  00000+0 -48204-1 0  9997", "line2": "2 66432  43.0011  80.8960 0001178 276.0594 310.9760 15.45160344  5355"}}, "geometry": {"type": "Point", "coordinates": [81.85255876113254, 3.463202967851558]}}, {"type": "Feature", "properties": {"norad_id": 66433, "name": "STARLINK-35457", "group": "last-30-days", "lat": 21.50595416315151, "lon": 103.07456079252987, "alt_km": 407.39774302134174, "timestamp": "2025-12-07T11:27:48.739475+00:00", "meta": {"OBJECT_NAME": "STARLINK-35457", "OBJECT_ID": "2025-259M", "EPOCH": "2025-12-06T16:46:43.862592", "MEAN_MOTION": 15.50973931, "ECCENTRICITY": 0.00075971, "INCLINATION": 42.9997, "RA_OF_ASC_NODE": 82.6182, "ARG_OF_PERICENTER": 324.7916, "MEAN_ANOMALY": 35.2442, "EPHEMERIS_TYPE": 0, "CLASSIFICATION_TYPE": "U", "NORAD_CAT_ID": 66433, "ELEMENT_SET_NO": 999, "REV_AT_EPOCH": 523, "BSTAR": 0.0027243451, "MEAN_MOTION_DOT": 0.00165357, "MEAN_MOTION_DDOT": 0}, "tle": {"line1": "1 66433U 25259M   25340.69911878  .00165357  00000+0  27243-2 0  9994", "line2": "2 66433  42.9997  82.6182 0007597 324.7916  35.2442 15.50973931  5234"}}, "geometry": {"type": "Point", "coordinates": [103.07456079252987, 21.50595416315151]}}, {"type": "Feature", "properties": {"norad_id": 66434, "name": "STARLINK-35389", "group": "last-30-days", "lat": 14.966227407004885, "lon": 94.75713262522383, "alt_km": 427.34317683851987, "timestamp": "2025-12-07T11:27:48.739485+00:00", "meta": {"OBJECT_NAME": "STARLINK-35389", "OBJECT_ID": "2025-259N", "EPOCH": "2025-12-07T00:00:02.000160", "MEAN_MOTION": 15.47839743, "ECCENTRICITY": 0.00012523, "INCLINATION": 43.0008, "RA_OF_ASC_NODE": 80.8652, "ARG_OF_PERICENTER": 268.0249, "MEAN_ANOMALY": 331.5869, "EPHEMERIS_TYPE": 0, "CLASSIFICATION_TYPE": "U", "NORAD_CAT_ID": 66434, "ELEMENT_SET_NO": 999, "REV_AT_EPOCH": 535, "BSTAR": -0.044635774, "MEAN_MOTION_DOT": -0.02108106, "MEAN_MOTION_DDOT": 0}, "tle": {"line1": "1 66434U 25259N   25341.00002315 -.02108106  00000+0 -44636-1 0  9995", "line2": "2 66434  43.0008  80.8652 0001252 268.0249 331.5869 15.47839743  5359"}}, "geometry": {"type": "Point", "coordinates": [94.75713262522383, 14.966227407004885]}}, {"type": "Feature", "properties": {"norad_id": 66435, "name": "STARLINK-35502", "group": "last-30-days", "lat": 19.122577602413962, "lon": 99.91539950791078, "alt_km": 422.9693506292515, "timestamp": "2025-12-07T11:27:48.739496+00:00", "meta": {"OBJECT_NAME": "STARLINK-35502", "OBJECT_ID": "2025-259P", "EPOCH": "2025-12-07T00:00:02.000160", "MEAN_MOTION": 15.49168976, "ECCENTRICITY": 0.00012993, "INCLINATION": 43.0011, "RA_OF_ASC_NODE": 80.856, "ARG_OF_PERICENTER": 266.1798, "MEAN_ANOMALY": 337.5964, "EPHEMERIS_TYPE": 0, "CLASSIFICATION_TYPE": "U", "NORAD_CAT_ID": 66435, "ELEMENT_SET_NO": 999, "REV_AT_EPOCH": 535, "BSTAR": -0.042641307, "MEAN_MOTION_DOT": -0.02110691, "MEAN_MOTION_DDOT": 0}, "tle": {"line1": "1 66435U 25259P   25341.00002315 -.02110691  00000+0 -42641-1 0  9992", "line2": "2 66435  43.0011  80.8560 0001299 266.1798 337.5964 15.49168976  5358"}}, "geometry": {"type": "Point", "coordinates": [99.91539950791078, 19.122577602413962]}}]}